$$SOE
2460147.500000000, A.D. 2023-Jul-22 00:00:00.0000, -3.097926200625507E+08, -1.927481021545608E+08, 1.303239832185645E+07,
2460154.500000000, A.D. 2023-Jul-29 00:00:00.0000, -3.017028919781354E+08, -2.013878498842172E+08, 1.497475807726835E+07,
2460161.500000000, A.D. 2023-Aug-05 00:00:00.0000, -2.933071887463949E+08, -2.098232937472513E+08, 1.690192310916889E+07,
2460168.500000000, A.D. 2023-Aug-12 00:00:00.0000, -2.846090002053605E+08, -2.180422798248305E+08, 1.881164868025596E+07,
2460175.500000000, A.D. 2023-Aug-19 00:00:00.0000, -2.756123630982069E+08, -2.260325480007954E+08, 2.070163838980280E+07,
2460182.500000000, A.D. 2023-Aug-26 00:00:00.0000, -2.663218842929478E+08, -2.337817565032218E+08, 2.256954685641757E+07,
2460189.500000000, A.D. 2023-Sep-02 00:00:00.0000, -2.567427633076496E+08, -2.412775090759176E+08, 2.441298286755353E+07,
2460196.500000000, A.D. 2023-Sep-09 00:00:00.0000, -2.468808138527976E+08, -2.485073848832379E+08, 2.622951301526965E+07,
2460203.500000000, A.D. 2023-Sep-16 00:00:00.0000, -2.367424839492579E+08, -2.554589712466087E+08, 2.801666582186231E+07,
2460210.500000000, A.D. 2023-Sep-23 00:00:00.0000, -2.263348739126909E+08, -2.621198989408129E+08, 2.977193636134709E+07,
2460217.500000000, A.D. 2023-Sep-30 00:00:00.0000, -2.156657522332375E+08, -2.684778788439978E+08, 3.149279152208321E+07,
2460224.500000000, A.D. 2023-Oct-07 00:00:00.0000, -2.047435713770183E+08, -2.745207404349155E+08, 3.317667609394068E+07,
2460231.500000000, A.D. 2023-Oct-14 00:00:00.0000, -1.935774821304997E+08, -2.802364753663002E+08, 3.482101932023524E+07,
2460238.500000000, A.D. 2023-Oct-21 00:00:00.0000, -1.821773429149750E+08, -2.856132843889108E+08, 3.642324175010927E+07,
2460245.500000000, A.D. 2023-Oct-28 00:00:00.0000, -1.705537251492059E+08, -2.906396251973149E+08, 3.798076270083863E+07,
2460252.500000000, A.D. 2023-Nov-04 00:00:00.0000, -1.587179155652109E+08, -2.953042617495251E+08, 3.949100836759292E+07,
2460259.500000000, A.D. 2023-Nov-11 00:00:00.0000, -1.466819149620652E+08, -2.995963153920227E+08, 4.095142049177338E+07,
2460266.500000000, A.D. 2023-Nov-18 00:00:00.0000, -1.344584328552213E+08, -3.035053175368713E+08, 4.235946552902795E+07,
2460273.500000000, A.D. 2023-Nov-25 00:00:00.0000, -1.220608776493592E+08, -3.070212635030481E+08, 4.371264426902691E+07,
2460280.500000000, A.D. 2023-Dec-02 00:00:00.0000, -1.095033420410185E+08, -3.101346671198193E+08, 4.500850185103911E+07,
2460287.500000000, A.D. 2023-Dec-09 00:00:00.0000, -9.680058334874471E+07, -3.128366156895307E+08, 4.624463810076565E+07,
2460294.500000000, A.D. 2023-Dec-16 00:00:00.0000, -8.396799830683857E+07, -3.151188247910481E+08, 4.741871808985974E+07,
2460301.500000000, A.D. 2023-Dec-23 00:00:00.0000, -7.102159185407153E+07, -3.169736916914419E+08, 4.852848285885875E+07,
2460308.500000000, A.D. 2023-Dec-30 00:00:00.0000, -5.797794120143330E+07, -3.183943457389772E+08, 4.957176041895249E+07,
2460315.500000000, A.D. 2024-Jan-06 00:00:00.0000, -4.485415696503343E+07, -3.193746974956787E+08, 5.054647689987530E+07,
2460322.500000000, A.D. 2024-Jan-13 00:00:00.0000, -3.166783828089835E+07, -3.199094878028095E+08, 5.145066729618853E+07,
2460329.500000000, A.D. 2024-Jan-20 00:00:00.0000, -1.843702085040098E+07, -3.199943330816128E+08, 5.228248583867769E+07,
2460336.500000000, A.D. 2024-Jan-27 00:00:00.0000, -5.180120202508447E+06, -3.196257656121691E+08, 5.304021611386950E+07,
2460343.500000000, A.D. 2024-Feb-03 00:00:00.0000, 8.084129056580829E+06, -3.188012691546394E+08, 5.372228077550568E+07,
2460350.500000000, A.D. 2024-Feb-10 00:00:00.0000, 2.133673785726042E+07, -3.175193096542696E+08, 5.432725068169563E+07,
2460357.500000000, A.D. 2024-Feb-17 00:00:00.0000, 3.455853077439417E+07, -3.157793605189305E+08, 5.485385333121373E+07,
2460364.500000000, A.D. 2024-Feb-24 00:00:00.0000, 4.773021708209864E+07, -3.135819220085810E+08, 5.530098048638271E+07,
2460371.500000000, A.D. 2024-Mar-02 00:00:00.0000, 6.083246413652989E+07, -3.109285343924021E+08, 5.566769487288871E+07,
2460378.500000000, A.D. 2024-Mar-09 00:00:00.0000, 7.384597252433498E+07, -3.078217846399089E+08, 5.595323584325966E+07,
2460385.500000000, A.D. 2024-Mar-16 00:00:00.0000, 8.675155263288465E+07, -3.042653062436523E+08, 5.615702390092962E+07,
2460392.500000000, A.D. 2024-Mar-23 00:00:00.0000, 9.953020177509478E+07, -3.002637709620298E+08, 5.627866411924393E+07,
2460399.500000000, A.D. 2024-Mar-30 00:00:00.0000, 1.121631788491574E+08, -2.958228725139202E+08, 5.631794861266959E+07,
2460406.500000000, A.D. 2024-Apr-06 00:00:00.0000, 1.246320760080206E+08, -2.909493057013217E+08, 5.627485773377322E+07,
2460413.500000000, A.D. 2024-Apr-13 00:00:00.0000, 1.369188901238317E+08, -2.856507403333380E+08, 5.614955972857645E+07,
2460420.500000000, A.D. 2024-Apr-20 00:00:00.0000, 1.490060923611024E+08, -2.799357875816050E+08, 5.594240916372251E+07,
2460427.500000000, A.D. 2024-Apr-27 00:00:00.0000, 1.608766936551210E+08, -2.738139597233379E+08, 5.565394424242732E+07,
2460434.500000000, A.D. 2024-May-04 00:00:00.0000, 1.725143055596573E+08, -2.672956244506743E+08, 5.528488298397603E+07,
2460441.500000000, A.D. 2024-May-11 00:00:00.0000, 1.839031961523509E+08, -2.603919543954035E+08, 5.483611829354198E+07,
2460448.500000000, A.D. 2024-May-18 00:00:00.0000, 1.950283406118797E+08, -2.531148724550478E+08, 5.430871198886418E+07,
2460455.500000000, A.D. 2024-May-25 00:00:00.0000, 2.058754661116826E+08, -2.454769935808112E+08, 5.370388786608407E+07,
2460462.500000000, A.D. 2024-Jun-01 00:00:00.0000, 2.164310908032314E+08, -2.374915637681281E+08, 5.302302389006111E+07,
2460469.500000000, A.D. 2024-Jun-08 00:00:00.0000, 2.266825569460962E+08, -2.291723969723132E+08, 5.226764358963902E+07,
2460476.500000000, A.D. 2024-Jun-15 00:00:00.0000, 2.366180584926780E+08, -2.205338101098833E+08, 5.143940677940793E+07,
2460483.500000000, A.D. 2024-Jun-22 00:00:00.0000, 2.462266621210726E+08, -2.115905556692574E+08, 5.054009991448205E+07,
2460490.500000000, A.D. 2024-Jun-29 00:00:00.0000, 2.554983196754503E+08, -2.023577544253497E+08, 4.957162624152920E+07,
2460497.500000000, A.D. 2024-Jul-06 00:00:00.0000, 2.644238748186311E+08, -1.928508313628634E+08, 4.853599541615991E+07,
2460504.500000000, A.D. 2024-Jul-13 00:00:00.0000, 2.729950660814021E+08, -1.830854525737531E+08, 4.743531275169188E+07,
2460511.500000000, A.D. 2024-Jul-20 00:00:00.0000, 2.812045246226301E+08, -1.730774625214571E+08, 4.627176848497121E+07,
2460518.500000000, A.D. 2024-Jul-27 00:00:00.0000, 2.890457663952923E+08, -1.628428231158729E+08, 4.504762714407055E+07,
2460525.500000000, A.D. 2024-Aug-03 00:00:00.0000, 2.965131793837879E+08, -1.523975553964449E+08, 4.376521705706967E+07,
2460532.500000000, A.D. 2024-Aug-10 00:00:00.0000, 3.036020065021834E+08, -1.417576841862983E+08, 4.242692007225958E+07,
2460539.500000000, A.D. 2024-Aug-17 00:00:00.0000, 3.103083246457778E+08, -1.309391859900681E+08, 4.103516156343757E+07,
2460546.500000000, A.D. 2024-Aug-24 00:00:00.0000, 3.166290203796360E+08, -1.199579403890501E+08, 3.959240078176310E+07,
2460553.500000000, A.D. 2024-Aug-31 00:00:00.0000, 3.225617628356979E+08, -1.088296851647561E+08, 3.810112159322767E+07,
2460560.500000000, A.D. 2024-Sep-07 00:00:00.0000, 3.281049746322222E+08, -9.756997513226613E+07, 3.656382362223842E+07,
2460567.500000000, A.D. 2024-Sep-14 00:00:00.0000, 3.332578013411672E+08, -8.619414373701069E+07, 3.498301391051862E+07,
2460574.500000000, A.D. 2024-Sep-21 00:00:00.0000, 3.380200779054872E+08, -7.471726700630936E+07, 3.336119934052492E+07,
2460581.500000000, A.D. 2024-Sep-28 00:00:00.0000, 3.423922919256144E+08, -6.315413304819866E+07, 3.170087962434888E+07,
2460588.500000000, A.D. 2024-Oct-05 00:00:00.0000, 3.463755478605314E+08, -5.151921701931476E+07, 3.000454053213079E+07,
2460595.500000000, A.D. 2024-Oct-12 00:00:00.0000, 3.499715321328850E+08, -3.982665847125959E+07, 2.827464764091663E+07,
2460602.500000000, A.D. 2024-Oct-19 00:00:00.0000, 3.531824777091140E+08, -2.809024121150536E+07, 2.651364074078067E+07,
2460609.500000000, A.D. 2024-Oct-26 00:00:00.0000, 3.560111284108649E+08, -1.632337632456853E+07, 2.472392882765027E+07,
2460616.500000000, A.D. 2024-Nov-02 00:00:00.0000, 3.584607034700661E+08, -4.539088328348220E+06, 2.290788563358622E+07,
2460623.500000000, A.D. 2024-Nov-09 00:00:00.0000, 3.605348626471814E+08, 7.249995742030036E+06, 2.106784566957082E+07,
2460630.500000000, A.D. 2024-Nov-16 00:00:00.0000, 3.622376721310439E+08, 1.903165451876312E+07, 1.920610075737677E+07,
2460637.500000000, A.D. 2024-Nov-23 00:00:00.0000, 3.635735714305391E+08, 3.079407790386070E+07, 1.732489701839517E+07,
2460644.500000000, A.D. 2024-Nov-30 00:00:00.0000, 3.645473416003675E+08, 4.252587024561882E+07, 1.542643227062393E+07,
2460651.500000000, A.D. 2024-Dec-07 00:00:00.0000, 3.651640753224194E+08, 5.421605170608323E+07, 1.351285380124704E+07,
2460658.500000000, A.D. 2024-Dec-14 00:00:00.0000, 3.654291482281895E+08, 6.585405924170960E+07, 1.158625664919877E+07,
2460665.500000000, A.D. 2024-Dec-21 00:00:00.0000, 3.653481892048441E+08, 7.742974615428722E+07, 9.648682482058007E+06,
2460672.500000000, A.D. 2024-Dec-28 00:00:00.0000, 3.649270517052944E+08, 8.893337743129228E+07, 7.702118617190775E+06,
2460679.500000000, A.D. 2025-Jan-04 00:00:00.0000, 3.641717886866299E+08, 1.003556234281695E+08, 5.748497116267733E+06,
2460686.500000000, A.D. 2025-Jan-11 00:00:00.0000, 3.630886293693113E+08, 1.116875537193225E+08, 3.789694229970060E+06,
2460693.500000000, A.D. 2025-Jan-18 00:00:00.0000, 3.616839569015868E+08, 1.229206303531914E+08, 1.827530176447175E+06,
2460700.500000000, A.D. 2025-Jan-25 00:00:00.0000, 3.599642871597792E+08, 1.340467001792485E+08, -1.362308326617777E+05,
2460707.500000000, A.D. 2025-Feb-01 00:00:00.0000, 3.579362488489525E+08, 1.450579863491270E+08, -2.099880362584591E+06,
2460714.500000000, A.D. 2025-Feb-08 00:00:00.0000, 3.556065649284228E+08, 1.559470791343201E+08, -4.061765348629385E+06,
$$EOE